{"fetched_at":"2026-03-29T16:36:15Z","count":15609,"tles":[{"name":"COSMOS 2572","line1":"1 58435U 23182A   26087.44117363  .00039725  24369-5  13306-3 0  9994","line2":"2 58435  96.6777 192.8127 0018034 190.6963 169.3931 15.90087334135628","category":"Other"}]}